[
    {
        "Altitude(m)": 710830.5419310726,
        "Argument of Periapsis(deg)": 0.007973084830638947,
        "Eccentricity": 0.0,
        "Inclination(deg)": 45.0,
        "Latitude(deg)": -27.697026107517996,
        "Longitude(deg)": 45.942702322981695,
        "Mean Anomaly(deg)": -139.1994483467634,
        "RAAN(deg)": 294.9924736409793,
        "Satellite Name": "Constellation 1 1311",
        "Satellite Number": 1311,
        "Semi-Major Axis(m)": 7083131.272910544,
        "Time(s)": 133
    },
    {
        "Altitude(m)": 710844.3772123705,
        "Argument of Periapsis(deg)": 0.008033032836884352,
        "Eccentricity": 0.0,
        "Inclination(deg)": 45.0,
        "Latitude(deg)": -27.733736922969552,
        "Longitude(deg)": 45.99311339296614,
        "Mean Anomaly(deg)": -139.13874720651359,
        "RAAN(deg)": 294.9924170518137,
        "Satellite Name": "Constellation 1 1311",
        "Satellite Number": 1311,
        "Semi-Major Axis(m)": 7083131.272910544,
        "Time(s)": 134
    },
    {
        "Altitude(m)": 710858.2114360663,
        "Argument of Periapsis(deg)": 0.008092980843129758,
        "Eccentricity": 0.0,
        "Inclination(deg)": 45.0,
        "Latitude(deg)": -27.77042597060464,
        "Longitude(deg)": 46.043560856257116,
        "Mean Anomaly(deg)": -139.0780460662636,
        "RAAN(deg)": 294.99236046264815,
        "Satellite Name": "Constellation 1 1311",
        "Satellite Number": 1311,
        "Semi-Major Axis(m)": 7083131.272910544,
        "Time(s)": 135
    },
    {
        "Altitude(m)": 710872.0445542447,
        "Argument of Periapsis(deg)": 0.008152928849375162,
        "Eccentricity": 0.0,
        "Inclination(deg)": 45.0,
        "Latitude(deg)": -27.807093202989073,
        "Longitude(deg)": 46.09404477244456,
        "Mean Anomaly(deg)": -139.01734492601372,
        "RAAN(deg)": 294.99230387348257,
        "Satellite Name": "Constellation 1 1311",
        "Satellite Number": 1311,
        "Semi-Major Axis(m)": 7083131.272910544,
        "Time(s)": 136
    },
    {
        "Altitude(m)": 710885.8765189796,
        "Argument of Periapsis(deg)": 0.008212876855620568,
        "Eccentricity": 0.0,
        "Inclination(deg)": 45.0,
        "Latitude(deg)": -27.843738572620435,
        "Longitude(deg)": 46.144565201095766,
        "Mean Anomaly(deg)": -138.95664378576384,
        "RAAN(deg)": 294.992247284317,
        "Satellite Name": "Constellation 1 1311",
        "Satellite Number": 1311,
        "Semi-Major Axis(m)": 7083131.272910544,
        "Time(s)": 137
    },
    {
        "Altitude(m)": 710899.7072823391,
        "Argument of Periapsis(deg)": 0.008272824861865974,
        "Eccentricity": 0.0,
        "Inclination(deg)": 45.0,
        "Latitude(deg)": -27.880362031927856,
        "Longitude(deg)": 46.19512220175454,
        "Mean Anomaly(deg)": -138.8959426455139,
        "RAAN(deg)": 294.9921906951514,
        "Satellite Name": "Constellation 1 1311",
        "Satellite Number": 1311,
        "Semi-Major Axis(m)": 7083131.272910544,
        "Time(s)": 138
    },
    {
        "Altitude(m)": 710913.5367963802,
        "Argument of Periapsis(deg)": 0.00833277286811138,
        "Eccentricity": 0.0,
        "Inclination(deg)": 45.0,
        "Latitude(deg)": -27.916963533271915,
        "Longitude(deg)": 46.24571583394093,
        "Mean Anomaly(deg)": -138.83524150526398,
        "RAAN(deg)": 294.9921341059859,
        "Satellite Name": "Constellation 1 1311",
        "Satellite Number": 1311,
        "Semi-Major Axis(m)": 7083131.272910544,
        "Time(s)": 139
    },
    {
        "Altitude(m)": 710927.365013159,
        "Argument of Periapsis(deg)": 0.008392720874356788,
        "Eccentricity": 0.0,
        "Inclination(deg)": 45.0,
        "Latitude(deg)": -27.953543028944623,
        "Longitude(deg)": 46.29634615715052,
        "Mean Anomaly(deg)": -138.7745403650141,
        "RAAN(deg)": 294.9920775168203,
        "Satellite Name": "Constellation 1 1311",
        "Satellite Number": 1311,
        "Semi-Major Axis(m)": 7083131.272910544,
        "Time(s)": 140
    },
    {
        "Altitude(m)": 710941.1918847256,
        "Argument of Periapsis(deg)": 0.008452668880602192,
        "Eccentricity": 0.0,
        "Inclination(deg)": 45.0,
        "Latitude(deg)": -27.99010047116962,
        "Longitude(deg)": 46.34701306275738,
        "Mean Anomaly(deg)": -138.71383922476426,
        "RAAN(deg)": 294.9920209276547,
        "Satellite Name": "Constellation 1 1311",
        "Satellite Number": 1311,
        "Semi-Major Axis(m)": 7083131.272910544,
        "Time(s)": 141
    },
    {
        "Altitude(m)": 710955.0173631194,
        "Argument of Periapsis(deg)": 0.008512616886847598,
        "Eccentricity": 0.0,
        "Inclination(deg)": 45.0,
        "Latitude(deg)": -28.026635812101123,
        "Longitude(deg)": 46.397716946400976,
        "Mean Anomaly(deg)": -138.65313808451435,
        "RAAN(deg)": 294.99196433848914,
        "Satellite Name": "Constellation 1 1311",
        "Satellite Number": 1311,
        "Semi-Major Axis(m)": 7083131.272910544,
        "Time(s)": 142
    },
    {
        "Altitude(m)": 710968.8414003794,
        "Argument of Periapsis(deg)": 0.008572564893093004,
        "Eccentricity": 0.0,
        "Inclination(deg)": 45.0,
        "Latitude(deg)": -28.063149003825288,
        "Longitude(deg)": 46.44845769940435,
        "Mean Anomaly(deg)": -138.59243694426442,
        "RAAN(deg)": 294.99190774932356,
        "Satellite Name": "Constellation 1 1311",
        "Satellite Number": 1311,
        "Semi-Major Axis(m)": 7083131.272910544,
        "Time(s)": 143
    },
    {
        "Altitude(m)": 710982.6639485315,
        "Argument of Periapsis(deg)": 0.008632512899338408,
        "Eccentricity": 0.0,
        "Inclination(deg)": 45.0,
        "Latitude(deg)": -28.099639998359038,
        "Longitude(deg)": 46.49923538116088,
        "Mean Anomaly(deg)": -138.53173580401455,
        "RAAN(deg)": 294.99185116015803,
        "Satellite Name": "Constellation 1 1311",
        "Satellite Number": 1311,
        "Semi-Major Axis(m)": 7083131.272910544,
        "Time(s)": 144
    },
    {
        "Altitude(m)": 710996.4849596041,
        "Argument of Periapsis(deg)": 0.008692460905583814,
        "Eccentricity": 0.0,
        "Inclination(deg)": 45.0,
        "Latitude(deg)": -28.136108747650606,
        "Longitude(deg)": 46.550050051037665,
        "Mean Anomaly(deg)": -138.4710346637646,
        "RAAN(deg)": 294.99179457099245,
        "Satellite Name": "Constellation 1 1311",
        "Satellite Number": 1311,
        "Semi-Major Axis(m)": 7083131.272910544,
        "Time(s)": 145
    },
    {
        "Altitude(m)": 711010.3043856162,
        "Argument of Periapsis(deg)": 0.00875240891182922,
        "Eccentricity": 0.0,
        "Inclination(deg)": 45.0,
        "Latitude(deg)": -28.172555203578987,
        "Longitude(deg)": 46.600901768373994,
        "Mean Anomaly(deg)": -138.41033352351477,
        "RAAN(deg)": 294.9917379818269,
        "Satellite Name": "Constellation 1 1311",
        "Satellite Number": 1311,
        "Semi-Major Axis(m)": 7083131.272910544,
        "Time(s)": 146
    },
    {
        "Altitude(m)": 711024.1221785839,
        "Argument of Periapsis(deg)": 0.008812356918074627,
        "Eccentricity": 0.0,
        "Inclination(deg)": 45.0,
        "Latitude(deg)": -28.208979317954334,
        "Longitude(deg)": 46.651790592481724,
        "Mean Anomaly(deg)": -138.34963238326486,
        "RAAN(deg)": 294.9916813926613,
        "Satellite Name": "Constellation 1 1311",
        "Satellite Number": 1311,
        "Semi-Major Axis(m)": 7083131.272910544,
        "Time(s)": 147
    },
    {
        "Altitude(m)": 711037.9382905072,
        "Argument of Periapsis(deg)": 0.008872304924320031,
        "Eccentricity": 0.0,
        "Inclination(deg)": 45.0,
        "Latitude(deg)": -28.245381042517888,
        "Longitude(deg)": 46.70271641454765,
        "Mean Anomaly(deg)": -138.2889312430149,
        "RAAN(deg)": 294.9916248034957,
        "Satellite Name": "Constellation 1 1311",
        "Satellite Number": 1311,
        "Semi-Major Axis(m)": 7083131.272910544,
        "Time(s)": 148
    },
    {
        "Altitude(m)": 711051.7526734006,
        "Argument of Periapsis(deg)": 0.008932252930565437,
        "Eccentricity": 0.0,
        "Inclination(deg)": 45.0,
        "Latitude(deg)": -28.281760328940763,
        "Longitude(deg)": 46.753679630020095,
        "Mean Anomaly(deg)": -138.22823010276505,
        "RAAN(deg)": 294.9915682143302,
        "Satellite Name": "Constellation 1 1311",
        "Satellite Number": 1311,
        "Semi-Major Axis(m)": 7083131.272910544,
        "Time(s)": 149
    },
    {
        "Altitude(m)": 711065.5652792612,
        "Argument of Periapsis(deg)": 0.008992200936810843,
        "Eccentricity": 0.0,
        "Inclination(deg)": 45.0,
        "Latitude(deg)": -28.318117128825808,
        "Longitude(deg)": 46.804680130027826,
        "Mean Anomaly(deg)": -138.16752896251512,
        "RAAN(deg)": 294.9915116251646,
        "Satellite Name": "Constellation 1 1311",
        "Satellite Number": 1311,
        "Semi-Major Axis(m)": 7083131.272910544,
        "Time(s)": 150
    },
    {
        "Altitude(m)": 711079.376060083,
        "Argument of Periapsis(deg)": 0.009052148943056249,
        "Eccentricity": 0.0,
        "Inclination(deg)": 45.0,
        "Latitude(deg)": -28.35445139370614,
        "Longitude(deg)": 46.855717973766346,
        "Mean Anomaly(deg)": -138.10682782226525,
        "RAAN(deg)": 294.991455035999,
        "Satellite Name": "Constellation 1 1311",
        "Satellite Number": 1311,
        "Semi-Major Axis(m)": 7083131.272910544,
        "Time(s)": 151
    }
]